[
    {
        "Altitude(m)": 555226.4693596911,
        "Argument of Periapsis(deg)": 0.013245982221427002,
        "Eccentricity": 0.0,
        "Inclination(deg)": 53.0,
        "Latitude(deg)": 31.124550006414374,
        "Longitude(deg)": 75.32881396613047,
        "Mean Anomaly(deg)": 40.183185735155185,
        "RAAN(deg)": 149.98028673705605,
        "Satellite Name": "Starlink Shell 1 661",
        "Satellite Number": 661,
        "Semi-Major Axis(m)": 6931778.249405717,
        "Time(s)": 380
    },
    {
        "Altitude(m)": 555302.6497397482,
        "Argument of Periapsis(deg)": 0.013594560700938237,
        "Eccentricity": 0.0,
        "Inclination(deg)": 53.0,
        "Latitude(deg)": 31.57186277178558,
        "Longitude(deg)": 75.80312601819426,
        "Mean Anomaly(deg)": 40.810016938711875,
        "RAAN(deg)": 149.97976796697859,
        "Satellite Name": "Starlink Shell 1 661",
        "Satellite Number": 661,
        "Semi-Major Axis(m)": 6931778.249405717,
        "Time(s)": 390
    },
    {
        "Altitude(m)": 555379.7031645923,
        "Argument of Periapsis(deg)": 0.013943139180449475,
        "Eccentricity": 0.0,
        "Inclination(deg)": 53.0,
        "Latitude(deg)": 32.01704458634843,
        "Longitude(deg)": 76.28236812758983,
        "Mean Anomaly(deg)": 41.4368481422686,
        "RAAN(deg)": 149.9792491969011,
        "Satellite Name": "Starlink Shell 1 661",
        "Satellite Number": 661,
        "Semi-Major Axis(m)": 6931778.249405717,
        "Time(s)": 400
    },
    {
        "Altitude(m)": 555457.574794803,
        "Argument of Periapsis(deg)": 0.014291717659960712,
        "Eccentricity": 0.0,
        "Inclination(deg)": 53.0,
        "Latitude(deg)": 32.46003838337999,
        "Longitude(deg)": 76.7666508727006,
        "Mean Anomaly(deg)": 42.0636793458253,
        "RAAN(deg)": 149.97873042682363,
        "Satellite Name": "Starlink Shell 1 661",
        "Satellite Number": 661,
        "Semi-Major Axis(m)": 6931778.249405717,
        "Time(s)": 410
    },
    {
        "Altitude(m)": 555536.20957878,
        "Argument of Periapsis(deg)": 0.014640296139471948,
        "Eccentricity": 0.0,
        "Inclination(deg)": 53.0,
        "Latitude(deg)": 32.90078578245993,
        "Longitude(deg)": 77.25608550827386,
        "Mean Anomaly(deg)": 42.69051054938204,
        "RAAN(deg)": 149.97821165674614,
        "Satellite Name": "Starlink Shell 1 661",
        "Satellite Number": 661,
        "Semi-Major Axis(m)": 6931778.249405717,
        "Time(s)": 420
    },
    {
        "Altitude(m)": 555615.5522814724,
        "Argument of Periapsis(deg)": 0.014988874618983185,
        "Eccentricity": 0.0,
        "Inclination(deg)": 53.0,
        "Latitude(deg)": 33.33922705656249,
        "Longitude(deg)": 77.7507844300206,
        "Mean Anomaly(deg)": 43.317341752938766,
        "RAAN(deg)": 149.97769288666865,
        "Satellite Name": "Starlink Shell 1 661",
        "Satellite Number": 661,
        "Semi-Major Axis(m)": 6931778.249405717,
        "Time(s)": 430
    },
    {
        "Altitude(m)": 555695.5475131896,
        "Argument of Periapsis(deg)": 0.015337453098494424,
        "Eccentricity": 0.0,
        "Inclination(deg)": 53.0,
        "Latitude(deg)": 33.77530109909274,
        "Longitude(deg)": 78.25086163306672,
        "Mean Anomaly(deg)": 43.94417295649546,
        "RAAN(deg)": 149.97717411659121,
        "Satellite Name": "Starlink Shell 1 661",
        "Satellite Number": 661,
        "Semi-Major Axis(m)": 6931778.249405717,
        "Time(s)": 440
    },
    {
        "Altitude(m)": 555776.1397584211,
        "Argument of Periapsis(deg)": 0.01568603157800566,
        "Eccentricity": 0.0,
        "Inclination(deg)": 53.0,
        "Latitude(deg)": 34.2089453909405,
        "Longitude(deg)": 78.75643165094351,
        "Mean Anomaly(deg)": 44.57100416005218,
        "RAAN(deg)": 149.97665534651375,
        "Satellite Name": "Starlink Shell 1 661",
        "Satellite Number": 661,
        "Semi-Major Axis(m)": 6931778.249405717,
        "Time(s)": 450
    },
    {
        "Altitude(m)": 555857.2734046987,
        "Argument of Periapsis(deg)": 0.0160346100575169,
        "Eccentricity": 0.0,
        "Inclination(deg)": 53.0,
        "Latitude(deg)": 34.64009596763724,
        "Longitude(deg)": 79.26761000041155,
        "Mean Anomaly(deg)": 45.197835363608895,
        "RAAN(deg)": 149.97613657643626,
        "Satellite Name": "Starlink Shell 1 661",
        "Satellite Number": 661,
        "Semi-Major Axis(m)": 6931778.249405717,
        "Time(s)": 460
    },
    {
        "Altitude(m)": 555938.8927714298,
        "Argument of Periapsis(deg)": 0.016383188537028134,
        "Eccentricity": 0.0,
        "Inclination(deg)": 53.0,
        "Latitude(deg)": 35.068687386707104,
        "Longitude(deg)": 79.78451361876671,
        "Mean Anomaly(deg)": 45.82466656716563,
        "RAAN(deg)": 149.97561780635877,
        "Satellite Name": "Starlink Shell 1 661",
        "Satellite Number": 661,
        "Semi-Major Axis(m)": 6931778.249405717,
        "Time(s)": 470
    },
    {
        "Altitude(m)": 556020.9421387382,
        "Argument of Periapsis(deg)": 0.01673176701653937,
        "Eccentricity": 0.0,
        "Inclination(deg)": 53.0,
        "Latitude(deg)": 35.49465269531157,
        "Longitude(deg)": 80.30725978025596,
        "Mean Anomaly(deg)": 46.45149777072234,
        "RAAN(deg)": 149.9750990362813,
        "Satellite Name": "Starlink Shell 1 661",
        "Satellite Number": 661,
        "Semi-Major Axis(m)": 6931778.249405717,
        "Time(s)": 480
    },
    {
        "Altitude(m)": 556103.3657762758,
        "Argument of Periapsis(deg)": 0.017080345496050607,
        "Eccentricity": 0.0,
        "Inclination(deg)": 53.0,
        "Latitude(deg)": 35.91792339830029,
        "Longitude(deg)": 80.83596651683797,
        "Mean Anomaly(deg)": 47.078328974279046,
        "RAAN(deg)": 149.97458026620382,
        "Satellite Name": "Starlink Shell 1 661",
        "Satellite Number": 661,
        "Semi-Major Axis(m)": 6931778.249405717,
        "Time(s)": 490
    },
    {
        "Altitude(m)": 556186.1079719777,
        "Argument of Periapsis(deg)": 0.017428923975561842,
        "Eccentricity": 0.0,
        "Inclination(deg)": 53.0,
        "Latitude(deg)": 36.33842942678823,
        "Longitude(deg)": 81.3707530298783,
        "Mean Anomaly(deg)": 47.70516017783576,
        "RAAN(deg)": 149.97406149612635,
        "Satellite Name": "Starlink Shell 1 661",
        "Satellite Number": 661,
        "Semi-Major Axis(m)": 6931778.249405717,
        "Time(s)": 500
    },
    {
        "Altitude(m)": 556269.1130607828,
        "Argument of Periapsis(deg)": 0.01777750245507308,
        "Eccentricity": 0.0,
        "Inclination(deg)": 53.0,
        "Latitude(deg)": 36.756099107390085,
        "Longitude(deg)": 81.91173857935199,
        "Mean Anomaly(deg)": 48.331991381392456,
        "RAAN(deg)": 149.9735427260489,
        "Satellite Name": "Starlink Shell 1 661",
        "Satellite Number": 661,
        "Semi-Major Axis(m)": 6931778.249405717,
        "Time(s)": 510
    },
    {
        "Altitude(m)": 556352.3254532818,
        "Argument of Periapsis(deg)": 0.018126080934584315,
        "Eccentricity": 0.0,
        "Inclination(deg)": 53.0,
        "Latitude(deg)": 37.170859132256815,
        "Longitude(deg)": 82.45904287573538,
        "Mean Anomaly(deg)": 48.9588225849492,
        "RAAN(deg)": 149.97302395597143,
        "Satellite Name": "Starlink Shell 1 661",
        "Satellite Number": 661,
        "Semi-Major Axis(m)": 6931778.249405717,
        "Time(s)": 520
    },
    {
        "Altitude(m)": 556435.6896642589,
        "Argument of Periapsis(deg)": 0.018474659414095554,
        "Eccentricity": 0.0,
        "Inclination(deg)": 53.0,
        "Latitude(deg)": 37.58263453006909,
        "Longitude(deg)": 83.01278646112918,
        "Mean Anomaly(deg)": 49.58565378850592,
        "RAAN(deg)": 149.97250518589394,
        "Satellite Name": "Starlink Shell 1 661",
        "Satellite Number": 661,
        "Semi-Major Axis(m)": 6931778.249405717,
        "Time(s)": 530
    },
    {
        "Altitude(m)": 556519.1503411632,
        "Argument of Periapsis(deg)": 0.018823237893606792,
        "Eccentricity": 0.0,
        "Inclination(deg)": 53.0,
        "Latitude(deg)": 37.99134863815499,
        "Longitude(deg)": 83.57308956614192,
        "Mean Anomaly(deg)": 50.21248499206262,
        "RAAN(deg)": 149.97198641581647,
        "Satellite Name": "Starlink Shell 1 661",
        "Satellite Number": 661,
        "Semi-Major Axis(m)": 6931778.249405717,
        "Time(s)": 540
    },
    {
        "Altitude(m)": 556602.6522924656,
        "Argument of Periapsis(deg)": 0.019171816373118027,
        "Eccentricity": 0.0,
        "Inclination(deg)": 53.0,
        "Latitude(deg)": 38.396923075915005,
        "Longitude(deg)": 84.14007246767873,
        "Mean Anomaly(deg)": 50.83931619561931,
        "RAAN(deg)": 149.97146764573898,
        "Satellite Name": "Starlink Shell 1 661",
        "Satellite Number": 661,
        "Semi-Major Axis(m)": 6931778.249405717,
        "Time(s)": 550
    },
    {
        "Altitude(m)": 556686.1405158798,
        "Argument of Periapsis(deg)": 0.019520394852629266,
        "Eccentricity": 0.0,
        "Inclination(deg)": 53.0,
        "Latitude(deg)": 38.79927771974867,
        "Longitude(deg)": 84.71385583414869,
        "Mean Anomaly(deg)": 51.46614739917604,
        "RAAN(deg)": 149.97094887566152,
        "Satellite Name": "Starlink Shell 1 661",
        "Satellite Number": 661,
        "Semi-Major Axis(m)": 6931778.249405717,
        "Time(s)": 560
    }
]